FENGYUN 1C DEB          
1 31743U 99025CES 17345.64368240  .00001051  00000-0  55869-3 0  9999
2 31743  99.1838 118.5644 0040692 237.7201 189.8186 14.15397660541744
